OBJECT_NAME,OBJECT_ID,EPOCH,MEAN_MOTION,ECCENTRICITY,INCLINATION,RA_OF_ASC_NODE,ARG_OF_PERICENTER,MEAN_ANOMALY,EPHEMERIS_TYPE,CLASSIFICATION_TYPE,NORAD_CAT_ID,ELEMENT_SET_NO,REV_AT_EPOCH,BSTAR,MEAN_MOTION_DOT,MEAN_MOTION_DDOT
TIANMU-1 20,2023-208B,2026-07-18T14:10:52.272192,15.33195106,.00066741,97.4472,316.7331,199.1521,160.9471,0,U,58661,999,14223,.13660371E-3,.4303E-4,0
TIANMU-1 21,2023-208C,2026-07-18T14:18:37.765152,15.35588873,.00070326,97.4533,319.5573,191.8227,168.2852,0,U,58662,999,14238,.15087055E-3,.5139E-4,0
TIANMU-1 22,2023-208D,2026-07-18T13:41:02.702688,15.31454570,.00030838,97.4525,315.9530,203.7463,156.3636,0,U,58663,999,14213,.13194385E-3,.3929E-4,0
TIANMU-1 15,2024-004A,2026-07-18T14:53:32.617824,15.26933669,.00063306,97.4673,25.8114,214.3958,145.6871,0,U,58700,999,14057,.10655664E-3,.2744E-4,0
TIANMU-1 16,2024-004B,2026-07-18T16:12:24.105600,15.27037138,.00046616,97.4621,25.0809,229.6045,130.4788,0,U,58701,999,14058,.1004449E-3,.259E-4,0
TIANMU-1 17,2024-004C,2026-07-18T15:51:30.204864,15.27034743,.00040872,97.4648,25.5628,235.4015,124.6839,0,U,58702,999,14057,.10219464E-3,.2636E-4,0
TIANMU-1 18,2024-004D,2026-07-18T15:17:20.929920,15.26949368,.00040658,97.4665,25.8021,209.5576,150.5433,0,U,58703,999,14057,.10470346E-3,.2696E-4,0
INSAT-3DS,2024-033A,2026-07-18T13:36:55.079424,1.00270806,.00011943,0.0816,264.1918,222.1695,96.2951,0,U,58990,999,4738,0,-.163E-5,0
METEOR-M2 4,2024-039A,2026-07-18T15:01:50.632608,14.22432307,.00082492,98.7028,158.5323,80.2691,279.9418,0,U,59051,999,12373,.13565122E-4,-.14E-6,0
GOES 19,2024-119A,2026-07-18T15:05:38.632704,1.00270741,.00003904,0.0180,140.2723,52.0769,255.2869,0,U,60133,999,727,0,-.255E-5,0
MTG-S1,2025-143A,2026-07-18T08:05:29.832576,1.00274495,.00033282,0.5826,345.8734,259.5296,171.7337,0,U,64723,999,373,0,-.15E-6,0
METOP-SGA1,2025-172A,2026-07-14T18:20:46.629312,14.19819127,.00070989,98.6631,254.9090,333.3306,26.7504,0,U,65159,999,4770,.2916334E-4,.19E-6,0
FENGYUN 3H,2025-219A,2026-07-18T06:10:51.106080,14.19925058,.00010828,98.6770,139.4235,62.7749,297.3537,0,U,65815,999,4179,.21382957E-4,.2E-7,0
