TIANMU-1 20             
1 58661U 23208B   26199.59088278  .00004303  00000+0  13660-3 0  9993
2 58661  97.4472 316.7331 0006674 199.1521 160.9471 15.33195106142230
TIANMU-1 21             
1 58662U 23208C   26199.59627043  .00005139  00000+0  15087-3 0  9996
2 58662  97.4533 319.5573 0007032 191.8227 168.2852 15.35588873142388
TIANMU-1 22             
1 58663U 23208D   26199.57017017  .00003929  00000+0  13194-3 0  9991
2 58663  97.4525 315.9530 0003083 203.7463 156.3636 15.31454570142133
TIANMU-1 15             
1 58700U 24004A   26199.62051641  .00002744  00000+0  10656-3 0  9999
2 58700  97.4673  25.8114 0006330 214.3958 145.6871 15.26933669140572
TIANMU-1 16             
1 58701U 24004B   26199.67527900  .00002590  00000+0  10044-3 0  9991
2 58701  97.4621  25.0809 0004661 229.6045 130.4788 15.27037138140587
TIANMU-1 17             
1 58702U 24004C   26199.66076626  .00002636  00000+0  10219-3 0  9990
2 58702  97.4648  25.5628 0004087 235.4015 124.6839 15.27034743140575
TIANMU-1 18             
1 58703U 24004D   26199.63704780  .00002696  00000+0  10470-3 0  9992
2 58703  97.4665  25.8021 0004065 209.5576 150.5433 15.26949368140570
INSAT-3DS               
1 58990U 24033A   26199.56730416 -.00000163  00000+0  00000+0 0  9991
2 58990   0.0816 264.1918 0001194 222.1695  96.2951  1.00270806 47389
METEOR-M2 4             
1 59051U 24039A   26199.62628047 -.00000014  00000+0  13565-4 0  9999
2 59051  98.7028 158.5323 0008249  80.2691 279.9418 14.22432307123736
GOES 19                 
1 60133U 24119A   26199.62891936 -.00000255  00000+0  00000+0 0  9992
2 60133   0.0180 140.2723 0000390  52.0769 255.2869  1.00270741  7279
MTG-S1                  
1 64723U 25143A   26199.33715084 -.00000015  00000+0  00000+0 0  9990
2 64723   0.5826 345.8734 0003328 259.5296 171.7337  1.00274495  3737
METOP-SGA1              
1 65159U 25172A   26195.76442858  .00000019  00000+0  29163-4 0  9994
2 65159  98.6631 254.9090 0007098 333.3306  26.7504 14.19819127 47700
FENGYUN 3H              
1 65815U 25219A   26199.25753595  .00000002  00000+0  21383-4 0  9994
2 65815  98.6770 139.4235 0001082  62.7749 297.3537 14.19925058 41798
